[{"OBJECT_NAME":"STARLINK-4716","OBJECT_ID":"2022-107G","EPOCH":"2026-03-09T18:14:43.904832","MEAN_MOTION":15.08847526,"ECCENTRICITY":0.00014324,"INCLINATION":53.2185,"RA_OF_ASC_NODE":243.8657,"ARG_OF_PERICENTER":82.7412,"MEAN_ANOMALY":277.3743,"EPHEMERIS_TYPE":0,"CLASSIFICATION_TYPE":"U","NORAD_CAT_ID":53706,"ELEMENT_SET_NO":999,"REV_AT_EPOCH":19486,"BSTAR":-2.5467392e-5,"MEAN_MOTION_DOT":-6.93e-6,"MEAN_MOTION_DDOT":0},{"OBJECT_NAME":"LEMUR-2-KREMPEL-BRO1","OBJECT_ID":"2025-061G","EPOCH":"2026-03-09T22:19:45.751296","MEAN_MOTION":15.13773226,"ECCENTRICITY":0.0017497,"INCLINATION":97.5535,"RA_OF_ASC_NODE":45.5283,"ARG_OF_PERICENTER":227.946,"MEAN_ANOMALY":132.0284,"EPHEMERIS_TYPE":0,"CLASSIFICATION_TYPE":"U","NORAD_CAT_ID":63357,"ELEMENT_SET_NO":999,"REV_AT_EPOCH":5261,"BSTAR":0.00031891713,"MEAN_MOTION_DOT":5.707e-5,"MEAN_MOTION_DDOT":0}]
